name,city,location,address,longitude,latitude,placeUrl,keywords,imageUrl,desc
가마오름,제주시,제주서부,제주특별자치도 제주시 한경면 청수리 1202-1,126.2470142,33.30554955,http://place.map.kakao.com/9440927,"박물관,동굴,일제시대,진지,역사",,
가메오름,제주시,제주서부,제주특별자치도 제주시 애월읍 봉성리 산 124,126.3357021,33.36732924,http://place.map.kakao.com/10116894,"억새,전망",https://api.cdn.visitjeju.net/photomng/imgpath/201804/30/ddae61fc-1e34-47b2-854d-3b97ffe1b76b.jpg,가메오름은 낮은 높이에도 정상에서 한림의 비양도와 바다 등 아름다운 경치를 감상할 수 있는 곳입니다.
가메옥,제주시,제주동부,제주특별자치도 제주시 구좌읍 덕천리 1712,126.7326612,33.45319891,http://place.map.kakao.com/8109737,"억새,가을,전망,목장",,
가메창,제주시,제주서부,제주특별자치도 제주시 한경면 저지리 1469,126.2485824,33.3297625,http://place.map.kakao.com/8109089,"올레길,바다,전망",,
가문이오름,서귀포시,서귀포동부,제주특별자치도 서귀포시 표선면 가시리 산 158-2,126.6882072,33.40213611,http://place.map.kakao.com/8111492,"트레킹,휴양림,목장,곶",,
가삿기오름,제주시,제주시,제주특별자치도 제주시 오라삼동 2845,126.5038782,33.48910023,http://place.map.kakao.com/11043050,-,,
가세오름,서귀포시,서귀포동부,제주특별자치도 서귀포시 표선면 토산리 산 5,126.7813191,33.33014143,http://place.map.kakao.com/10118902,"꽃,알오름,바다,전망",https://api.cdn.visitjeju.net/photomng/imgpath/202211/23/9347cc56-b97f-4d1b-af7d-f485f4b63f25.jpg,"가세 오름은 표선면에 위치한 말굽형 오름이에요, 두 갈래 봉우리로 가위처럼 보여요. 덤불과 복잡한 탐방로가 있어 긴 바지를 입고 주의하세요. "
가시오름,서귀포시,서귀포서부,제주특별자치도 서귀포시 대정읍 동일리 1706,126.2431502,33.24704705,http://place.map.kakao.com/11269510,"곶,바다,유채꽃",,
각시바위,서귀포시,서귀포시,제주특별자치도 서귀포시 호근동 2112,126.5261525,33.27677459,http://place.map.kakao.com/8675561,"바위,등산,전망,바다",,
갈마못,서귀포시,서귀포동부,제주특별자치도 서귀포시 성산읍 신풍리,126.8367205,33.3665107,http://place.map.kakao.com/12969030,"제주군,억새,산록,성읍,바다",,
감낭오름,서귀포시,서귀포서부,제주특별자치도 서귀포시 안덕면 동광리 산 41,126.3501802,33.3249196,http://place.map.kakao.com/8674728,"전망,목장,바위",,
감은이오름,제주시,제주동부,제주특별자치도 제주시 구좌읍 송당리 산 297,126.7411777,33.42346025,http://place.map.kakao.com/8676274,알오름,,
갑선이오름,서귀포시,서귀포동부,제주특별자치도 서귀포시 표선면 가시리 산 2,126.7816635,33.36085587,http://place.map.kakao.com/25169758,"유채꽃,트레킹,전망",,
개미목,제주시,제주시,제주특별자치도 제주시 오라이동 산 107-20,126.5315363,33.37799705,http://place.map.kakao.com/226444204,"등산,관음사,계곡,꽃",,
개오름,서귀포시,서귀포동부,제주특별자치도 서귀포시 표선면 성읍리 2974,126.7718559,33.4225891,http://place.map.kakao.com/10620522,"알오름,동산,꽃",https://api.cdn.visitjeju.net/photomng/imgpath/202112/16/aa9a064a-2358-4ec6-a340-30bcafc9ae7f.JPG,"개오름은 개모양 또는 풍수지리에서 유래된 말굽형 기생화산입니다. 정상까지 탐방 가능하나, 목장 내 지정 코스만 이용해야 합니다."
개월이오름,제주시,제주시,제주특별자치도 제주시 봉개동 산 78-1,126.6127004,33.42663921,http://place.map.kakao.com/7937029,"트레킹,휴양림,제주마,편백,방목지",,
갯거리오름,제주시,제주서부,제주특별자치도 제주시 한림읍 명월리 18,126.2927281,33.37575529,http://place.map.kakao.com/8650849,알오름,,
갯머리오름,서귀포시,서귀포시,제주특별자치도 서귀포시 대포동 산 1-8,126.4577474,33.30998565,http://place.map.kakao.com/25172867,"휴양림,전망,전망대,트레킹",,
거린사슴,서귀포시,서귀포시,제주특별자치도 서귀포시 대포동 산 2-1,126.4542363,33.30960512,http://place.map.kakao.com/8175569,"전망대,트레킹,휴양림,바다,전망",,
거린오름,서귀포시,서귀포서부,제주특별자치도 서귀포시 안덕면 동광리 산 94,126.331933,33.30313646,http://place.map.kakao.com/8168834,"트레킹,사려니,목장,전망",,
거린족은오름,서귀포시,서귀포동부,제주특별자치도 서귀포시 남원읍 한남리 산 2-1,126.6613643,33.34953039,http://place.map.kakao.com/25173313,"트레킹,삼나무,편백,전망대",,
거문오름,제주시,제주동부,제주특별자치도 제주시 조천읍 선흘리 481,126.7147427,33.45692229,http://place.map.kakao.com/18489468,"세계유산,용암,동굴,트레킹",https://api.cdn.visitjeju.net/photomng/imgpath/201804/30/e05943ea-8718-4891-bfdb-22ebf6008788.jpg,"거문오름은 유네스코 자연유산으로, 용암동굴과 화산 지형이 유명합니다. 트레킹은 예약제로 운영되며, 전시관은 화요일 제외 관람 가능합니다."
거슨세미오름,제주시,제주동부,제주특별자치도 제주시 구좌읍 송당리 산 145,126.7601311,33.4502293,http://place.map.kakao.com/8174706,"트레킹,편백,비자나무,삼나무,샘물",,
거인악,서귀포시,서귀포동부,제주특별자치도 서귀포시 남원읍 한남리 산 2-1,126.6580196,33.35347753,http://place.map.kakao.com/10812380,"녹차,전망,트레킹,사려니,꽃",,
거친오름_봉개동,제주시,제주시,제주특별자치도 제주시 봉개동 산 66,126.6194858,33.44450029,http://place.map.kakao.com/10129920,"노루,억새,알오름",,
거친오름_송당리,제주시,제주동부,제주특별자치도 제주시 구좌읍 송당리 산 84-2,126.7405421,33.45964411,http://place.map.kakao.com/25173826,-,,
걸리오름,서귀포시,서귀포동부,제주특별자치도 서귀포시 성산읍 신풍리 1576,126.8149448,33.37594447,http://place.map.kakao.com/25174765,"알오름,공원",,
걸서악,서귀포시,서귀포동부,제주특별자치도 서귀포시 남원읍 하례리 산 124,126.6197949,33.28231397,http://place.map.kakao.com/8183004,"전망대,계곡,바다,전망",,
걸쇠오름,제주시,제주시,제주특별자치도 제주시 연동 2488-254,126.5036447,33.41396642,http://place.map.kakao.com/25174790,"전망,알오름,전망대,삼나무,동산",,
검은데기오름,제주시,제주서부,제주특별자치도 제주시 애월읍 소길리 산 118,126.3860448,33.41868025,http://place.map.kakao.com/11039987,"고려,몽골,일본군,전쟁,원나라",,
검은들먹오름,제주시,제주서부,제주특별자치도 제주시 애월읍 봉성리 산 1,126.406297,33.36257483,http://place.map.kakao.com/8679274,"트레킹,농장,전망,단풍,등산",,
검은오름,제주시,제주시,제주특별자치도 제주시 연동 산 110-1,126.4985671,33.44293879,http://place.map.kakao.com/8170465,"삼나무,전망,동굴,트레킹",,
고냉이굴오름,제주시,제주시,제주특별자치도 제주시 봉개동,126.6161115,33.47755705,http://place.map.kakao.com/25176062,"알오름,동굴,화산",,
고냉이술,제주시,제주시,제주특별자치도 제주시 봉개동 165,126.6163232,33.4773882,http://place.map.kakao.com/8654782,"전망,일제시대,갱도,동굴",,
고이오름,서귀포시,서귀포동부,제주특별자치도 서귀포시 남원읍 한남리 산 15-2,126.6607874,33.31902874,http://place.map.kakao.com/8657685,"염소,편백,목장,나무숲,농장",,
골머리오름,제주시,제주시,제주특별자치도 제주시 노형동 산 20,126.496889,33.40629992,http://place.map.kakao.com/25179216,"천왕사,바위,계곡,골짜기",,
골체오름,제주시,제주동부,제주특별자치도 제주시 조천읍 선흘리 1912,126.7045841,33.45070086,http://place.map.kakao.com/8188069,"캠핑,꽃,봄,전망,가족",,
과오름,제주시,제주서부,제주특별자치도 제주시 애월읍 곽지리 산 4,126.3231724,33.44619694,http://place.map.kakao.com/25180821,"올레길,전망,묘지,꽃,바다",,
광이오름,제주시,제주시,제주특별자치도 제주시 연동 산 62,126.4948812,33.46805585,http://place.map.kakao.com/25181898,"수목원,산책,식물,노루,대나무",,
광해악,서귀포시,서귀포서부,제주특별자치도 서귀포시 안덕면 서광리 929,126.3175442,33.28769756,http://place.map.kakao.com/237377496,"용머리,화산,전망,바다,퇴적",,
괭이모루,제주시,제주동부,제주특별자치도 제주시 구좌읍 송당리 산 198,126.7803343,33.4621355,http://place.map.kakao.com/8194279,"트레킹,산책,나무숲,전망",,
괴수치,서귀포시,서귀포서부,제주특별자치도 서귀포시 안덕면 광평리 산 81,126.3695856,33.34017741,http://place.map.kakao.com/8194672,"트레킹,동백,삼나무,억새",,
괴오름,제주시,제주서부,제주특별자치도 제주시 애월읍 봉성리 산 41,126.3794884,33.35849651,http://place.map.kakao.com/10154919,"전망,목장,꽃,등산",,
구그네오름,제주시,제주동부,제주특별자치도 제주시 조천읍 와흘리 957,126.6392526,33.49054739,http://place.map.kakao.com/8191401,"목장,세계유산,전망,봄",,
구두리오름,서귀포시,서귀포동부,제주특별자치도 서귀포시 표선면 가시리 산 158-2,126.6880416,33.4099608,http://place.map.kakao.com/8191728,"목장,트레킹,전망,삼나무",,
군산,서귀포시,서귀포서부,제주특별자치도 서귀포시 안덕면 창천리 산 3-1,126.3699625,33.25313318,http://place.map.kakao.com/25186462,-,https://api.cdn.visitjeju.net/photomng/imgpath/202111/04/20b8b887-9d81-4631-b3ce-df5c7095ae2c.jpg,"군산은 제주 최대 화산쇄설성 오름입니다. 정상에서 한라산, 중문관광단지, 마라도, 산방산을 전망할 수 있으며, 동쪽 해안의 일출이 장관입니다. 전설에 따르면, 용왕의 아들이 강씨 선생의 집 앞에서 3년간 글을 배우고 떠나면서 산이 생겼다고 합니다."
굽은오름,제주시,제주서부,제주특별자치도 제주시 한경면 조수리 3855,126.2122755,33.29913028,http://place.map.kakao.com/8663815,"갱도,전망,일제시대,진지",,
굿산망,서귀포시,서귀포시,제주특별자치도 서귀포시 하원동 1806,126.4521419,33.25814409,http://place.map.kakao.com/8192529,-,,
궁대악,서귀포시,서귀포동부,제주특별자치도 서귀포시 성산읍 수산리 4711-8,126.8231417,33.43554155,http://place.map.kakao.com/8212572,"노루,전망,억새,가을",,
권제오름,제주시,제주시,제주특별자치도 제주시 아라일동 350,126.5583136,33.45691901,http://place.map.kakao.com/8676017,"산책,꽃,소나무,힐링,트레킹",,
궤미오름,제주시,제주서부,제주특별자치도 제주시 애월읍 봉성리 산 41,126.3738394,33.35638364,http://place.map.kakao.com/25187565,"목장,동굴,억새,바위",,
궤사름,서귀포시,서귀포시,제주특별자치도 서귀포시 도순동 217,126.4765469,33.26083057,http://place.map.kakao.com/234956975,"녹나무,자생지,천연기념물,바다,왕벚나무",,
궷물오름,제주시,제주서부,제주특별자치도 제주시 애월읍 유수암리 산 136-6,126.4059387,33.39695302,http://place.map.kakao.com/8217224,"꽃,트레킹,등산,전망,산책",,
극락오름,제주시,제주서부,제주특별자치도 제주시 애월읍 고성리 1032,126.4145331,33.43448322,http://place.map.kakao.com/25187989,"소나무,고려,항쟁,바위,역사",,
금산,서귀포시,서귀포서부,제주특별자치도 서귀포시 대정읍 상모리 977,126.2853974,33.23513871,http://place.map.kakao.com/8222952,"가을,출렁다리,전망,등산",,
금오름,제주시,제주서부,제주특별자치도 제주시 한림읍 금악리 산 1-1,126.3058389,33.35457233,http://place.map.kakao.com/25189061,"일몰,전망,억새,가을",,
까끄래기오름,제주시,제주동부,제주특별자치도 제주시 조천읍 교래리 128-1,126.7031475,33.43164464,http://place.map.kakao.com/25190845,"산굼부리,억새,꽃,전망",,
꾀꼬리오름,제주시,제주동부,제주특별자치도 제주시 조천읍 대흘리 산 33,126.6791002,33.46115294,http://place.map.kakao.com/8241683,"동굴,전망,바다,꽃",,
나시리오름,서귀포시,서귀포동부,제주특별자치도 서귀포시 성산읍 난산리 2817,126.8335694,33.41421117,http://place.map.kakao.com/25192315,"트레킹,캠핑,전망,산책,가족",,
남거니오름,서귀포시,서귀포동부,제주특별자치도 서귀포시 성산읍 수산리 3954,126.8420223,33.43536958,http://place.map.kakao.com/25192869,"전망,돌산",,
남산봉,서귀포시,서귀포동부,제주특별자치도 서귀포시 성산읍 신풍리 1657-1,126.8125302,33.38341257,http://place.map.kakao.com/11300413,"바위,등산,전망,동굴,바다",,
남송이오름,서귀포시,서귀포서부,제주특별자치도 서귀포시 안덕면 서광리 산 31,126.306819,33.31221422,http://place.map.kakao.com/8231118,"전망,곶,녹차,전망대",,
남좃은오름,제주시,제주시,제주특별자치도 제주시 연동 산 20-2,126.4972587,33.47250857,http://place.map.kakao.com/25193943,"수목원,전망,노루,바다",,
냇새오름,제주시,제주서부,제주특별자치도 제주시 애월읍 광령리,126.4615833,33.39232204,http://place.map.kakao.com/25195576,"트레킹,계곡,알오름,산기슭",,
넉시악,서귀포시,서귀포동부,제주특별자치도 서귀포시 남원읍 의귀리 531,126.7147835,33.30618821,http://place.map.kakao.com/8224254,-,,
널개오름,제주시,제주서부,제주특별자치도 제주시 한경면 판포리 935-1,126.2133828,33.35800516,http://place.map.kakao.com/237503897,"알오름,포구",,
넙거리오름,제주시,제주동부,제주특별자치도 제주시 조천읍 교래리 산 137-1,126.6257498,33.39626617,http://place.map.kakao.com/10186346,"트레킹,사려니,산굼부리,휴양림",,
넙게오름,서귀포시,서귀포서부,제주특별자치도 서귀포시 안덕면 서광리 943,126.3173631,33.28792468,http://place.map.kakao.com/8244203,"곶,전망",,
노로오름,제주시,제주서부,제주특별자치도 제주시 애월읍 상가리 산 124,126.439303,33.36626077,http://place.map.kakao.com/25197040,"트레킹,단풍,계곡,등산",,
노루손이오름,제주시,제주시,제주특별자치도 제주시 연동,126.4953532,33.42668162,http://place.map.kakao.com/25197241,"노루,전망,바다,소나무,삼나무",,
노리손이,제주시,제주시,제주특별자치도 제주시 연동 산 137,126.4968337,33.42557506,http://place.map.kakao.com/8205517,"노루,제주군,알오름,산기슭",,
녹하지악,서귀포시,서귀포시,제주특별자치도 서귀포시 중문동 산 5,126.4308812,33.30464154,http://place.map.kakao.com/8228030,"주상절리,용암,바다,폭포",,
논고악,서귀포시,서귀포동부,제주특별자치도 서귀포시 남원읍 신례리 산 2-1,126.6106005,33.35962486,http://place.map.kakao.com/8251573,"트레킹,성판악,계곡,동굴",,
논오름_삼양동,제주시,제주시,제주특별자치도 제주시 삼양동 558-1,126.5987952,33.51746816,http://place.map.kakao.com/8191971,"영실,동산,산기슭",,
논오름_상창리,서귀포시,서귀포서부,제주특별자치도 서귀포시 안덕면 상창리 2781,126.3377127,33.27132249,http://place.map.kakao.com/25198519,"유채꽃,동굴,역사,일제시대,태평양전쟁",,
높은오름,제주시,제주동부,제주특별자치도 제주시 구좌읍 송당리 산 213-1,126.793069,33.45641147,http://place.map.kakao.com/25199090,"전망,억새,가을,성산일출봉",,
누운오름,제주시,제주서부,제주특별자치도 제주시 한림읍 금악리 198-15,126.3311916,33.36237779,http://place.map.kakao.com/11017083,"영실,전망,등산,억새",,
눈오름_봉성리,제주시,제주서부,제주특별자치도 제주시 애월읍 봉성리 2952-2,126.3110467,33.40847348,http://place.map.kakao.com/8221826,-,,
눈오름_소길리,제주시,제주서부,제주특별자치도 제주시 애월읍 소길리 산 12,126.3702781,33.43964981,http://place.map.kakao.com/228295093,-,,
눈오름_장전리,제주시,제주서부,제주특별자치도 제주시 애월읍 장전리 1756,126.3757112,33.449831,http://place.map.kakao.com/8220369,"설경,전망,관광",,
눈오름_해안동,제주시,제주시,제주특별자치도 제주시 해안동 166-17,126.474797,33.45946674,http://place.map.kakao.com/8297242,"동산,알오름",,
느지리오름,제주시,제주서부,제주특별자치도 제주시 한림읍 상명리 산 5,126.2615941,33.36656797,http://place.map.kakao.com/7862701,"전망대,바다,산책,트레킹",,
늡서리,제주시,제주동부,제주특별자치도 제주시 조천읍 교래리 산 119,126.6629475,33.44178417,http://place.map.kakao.com/8216051,"곶,휴양림,용암,트레킹",,
능화오름,제주시,제주시,제주특별자치도 제주시 오라이동 산 107-20,126.5341367,33.40020805,http://place.map.kakao.com/10276903,"계곡,알오름,식물,동물",,
다랑쉬오름,제주시,제주동부,제주특별자치도 제주시 구좌읍 세화리 산 6,126.8215359,33.47768586,http://place.map.kakao.com/25200772,"전망,성산일출봉,억새,바다",https://api.cdn.visitjeju.net/photomng/imgpath/201804/30/21ead729-dd07-42e8-be6b-e272828c7317.jpg,"다랑쉬오름은 둥근 분화구와 아름다운 경관으로 유명하며, 4·3사건의 아픔을 간직한 역사적 장소입니다."
다래오름북동쪽,제주시,제주서부,제주특별자치도 제주시 애월읍 봉성리 산 1,126.4097583,33.36202692,http://place.map.kakao.com/17788460,"가을,산기슭,전망,트레킹,습지",,
단산,서귀포시,서귀포서부,제주특별자치도 서귀포시 대정읍 인성리 21-2,126.2883335,33.24286074,http://place.map.kakao.com/8306005,"모노레일,관광,전망,패러글라이딩,전망대",https://api.cdn.visitjeju.net/photomng/imgpath/202112/06/0d0373ae-eb4c-4731-8961-09f28f38f39d.jpg,"단산은 박쥐 형상의 오름으로, 암벽 클라이밍이 가능하며 정상에서 한라산과 제주 남서부의 경관을 감상할 수 있습니다."
당산봉,제주시,제주서부,제주특별자치도 제주시 한경면 용수리 산 28,126.1729781,33.30774396,http://place.map.kakao.com/7814429,"바다,포구,전망,올레길,일몰",https://api.cdn.visitjeju.net/photomng/imgpath/201908/21/d6795223-0fb4-42ac-8154-5ca45a09ba84.jpg,
당오름_동광리,서귀포시,서귀포서부,제주특별자치도 서귀포시 안덕면 동광리 산 68-1,126.3356559,33.33409955,http://place.map.kakao.com/7814463,"알오름,동산,동굴",,
당오름_송당리,제주시,제주동부,제주특별자치도 제주시 구좌읍 송당리 산 199-1,126.7786029,33.46659989,http://place.map.kakao.com/7814539,"트레킹,알오름,동산,산책",,
당오름_와산리,제주시,제주동부,제주특별자치도 제주시 조천읍 와산리 산 7-5,126.6876249,33.47856124,http://place.map.kakao.com/7814464,"동산,알오름",,
큰사슴이오름,서귀포시,서귀포동부,제주특별자치도 서귀포시 표선면 가시리 산 68-9,126.729544,33.39914417,http://place.map.kakao.com/25204904,"억새,유채꽃,가을,사슴,전망",https://api.cdn.visitjeju.net/photomng/imgpath/201804/30/a84e3dfe-c4d9-41b5-a9cb-33e2c1096d35.jpg,
대물동산,제주시,제주동부,제주특별자치도 제주시 구좌읍 송당리 1919,126.7857782,33.46526459,http://place.map.kakao.com/7823928,"화산,알오름",,
대병악,서귀포시,서귀포서부,제주특별자치도 서귀포시 안덕면 상창리 산 2-1,126.3682578,33.30625848,http://place.map.kakao.com/10255199,"전망,곶,꽃,바위",,
대수산봉,서귀포시,서귀포동부,제주특별자치도 서귀포시 성산읍 고성리 2039-1,126.9016497,33.43967509,http://place.map.kakao.com/25206111,"성산일출봉,올레길,섭지코지,일출,전망",,
대왕산,서귀포시,서귀포동부,제주특별자치도 서귀포시 성산읍 수산리 1431,126.8729163,33.45612502,http://place.map.kakao.com/25206398,"등산,전망,섬,바위,전망대",,
대천이오름,제주시,제주동부,제주특별자치도 제주시 조천읍 선흘리 산 154,126.6850217,33.45135866,http://place.map.kakao.com/25206936,"곶,동굴,포구,트레킹",,
더더오름,서귀포시,서귀포시,제주특별자치도 서귀포시 상예동 4389-2,126.373608,33.27685511,http://place.map.kakao.com/8264639,-,,
도너리오름,제주시,제주서부,제주특별자치도 제주시 한림읍 금악리 산 60,126.3213432,33.32569857,http://place.map.kakao.com/8260448,"곶,전망,동굴,억새",,
도두봉,제주시,제주시,제주특별자치도 제주시 도두일동 산 2,126.4683501,33.50798635,http://place.map.kakao.com/7834621,"바다,무지개,전망,전망대,산책",https://api.cdn.visitjeju.net/photomng/imgpath/201908/07/273f5b9b-f6b2-436d-bc9d-27086e289e22.jpg,
도래오름,제주시,제주서부,제주특별자치도 제주시 애월읍 어음리 산 26-23,126.3928586,33.35797477,http://place.map.kakao.com/25210557,"계곡,습지,전망,바다",,
도레오름,서귀포시,서귀포시,제주특별자치도 서귀포시 중문동 산 1-1,126.4613413,33.33497239,http://place.map.kakao.com/10263050,"영실,습지,트레킹,전망대,전망",,
도청오름,서귀포시,서귀포동부,제주특별자치도 서귀포시 표선면 표선리 산 4-1,126.8152552,33.31498065,http://place.map.kakao.com/10307727,"바다,트레킹,산책,전망",,
돈두악,서귀포시,서귀포서부,제주특별자치도 서귀포시 대정읍 영락리 1487-1,126.210242,33.24989166,http://place.map.kakao.com/7832617,"바다,포구,진지,일제시대,올레길",,
돌리미오름,제주시,제주동부,제주특별자치도 제주시 구좌읍 송당리 산 255-1,126.7727027,33.4318412,http://place.map.kakao.com/25213746,"전망,억새,소나무,삼나무",,
돌미오름,서귀포시,서귀포동부,제주특별자치도 서귀포시 성산읍 수산리 4535,126.8291494,33.43796629,http://place.map.kakao.com/25034428,"가을,억새,바람길,전망,박물관",,
돌오름_상천리,서귀포시,서귀포서부,제주특별자치도 서귀포시 안덕면 상천리 산 1,126.4297502,33.33702228,http://place.map.kakao.com/7834687,-,,
돌오름_월평동,제주시,제주시,제주특별자치도 제주시 월평동 산 6-9,126.5685472,33.38060253,http://place.map.kakao.com/7833931,"군락,동식물,동백,자연림,억새",,
돔박이,서귀포시,서귀포서부,제주특별자치도 서귀포시 안덕면 광평리 산 89,126.3643359,33.33947175,http://place.map.kakao.com/7834107,"동백,전망,삼나무,억새",,
돔배오름,제주시,제주동부,제주특별자치도 제주시 조천읍 교래리 산 64,126.6692249,33.42785861,http://place.map.kakao.com/7834108,"트레킹,곶,산굼부리,제주군",,
동검은이오름,제주시,제주동부,제주특별자치도 제주시 구좌읍 종달리 산 70,126.8036721,33.44894445,http://place.map.kakao.com/25214418,"전망,억새,성산일출봉,가을",,
동머루,서귀포시,서귀포동부,제주특별자치도 서귀포시 성산읍 신풍리 589,126.8352025,33.37036674,http://place.map.kakao.com/228851951,-,,
동물오름,제주시,제주서부,제주특별자치도 제주시 애월읍 봉성리 산 41,126.3797891,33.35852506,http://place.map.kakao.com/25215519,"전망,동물,억새",,
동수악,서귀포시,서귀포동부,제주특별자치도 서귀포시 남원읍 한남리 산 2-12,126.62767,33.36136414,http://place.map.kakao.com/7840524,"습지,트레킹,바다,사려니",,
동알오름,서귀포시,서귀포서부,제주특별자치도 서귀포시 대정읍 상모리 152,126.2881303,33.20741704,http://place.map.kakao.com/7849255,"바다,비행장,일제시대,진지,역사",,
돛오름,제주시,제주동부,제주특별자치도 제주시 구좌읍 송당리 산 3,126.8015059,33.4810806,http://place.map.kakao.com/17788818,"비자나무,바다,전망,곶",https://api.cdn.visitjeju.net/photomng/imgpath/202112/21/cf31d865-a930-470a-bf8d-d0ca7c9d47c4.jpg,
두강봉,제주시,제주서부,제주특별자치도 제주시 한경면 조수리 1277,126.2233013,33.3358857,http://place.map.kakao.com/26455799,"풍력발전,화산,햇빛",,
두산봉,서귀포시,서귀포동부,제주특별자치도 서귀포시 성산읍 시흥리 2661,126.8873917,33.47711944,http://place.map.kakao.com/10289213,"성산일출봉,올레길,우도,알오름,일출",,
두수오름,서귀포시,서귀포동부,제주특별자치도 서귀포시 남원읍 하례리,126.6051515,33.30522462,http://place.map.kakao.com/25218190,"폭포,계곡,트레킹,바위,역사",,
뒤굽은이오름,제주시,제주동부,제주특별자치도 제주시 구좌읍 송당리 산 38,126.7668334,33.4785363,http://place.map.kakao.com/7860041,"바다,포구,전망,박물관",,
들레오름,제주시,제주시,제주특별자치도 제주시 월평동 665-1,126.5804393,33.45890545,http://place.map.kakao.com/25222743,"포구,알오름,바다,박물관",,
들위오름,제주시,제주시,제주특별자치도 제주시 오등동 산 154-5,126.5402447,33.4272808,http://place.map.kakao.com/8341417,"골프장,동굴,계곡,알오름,산록",,
따라비오름,서귀포시,서귀포동부,제주특별자치도 서귀포시 표선면 가시리 산 63,126.7528584,33.38870699,http://place.map.kakao.com/25036598,"억새,가을,전망,유채꽃",https://api.cdn.visitjeju.net/photomng/imgpath/202111/01/2807b2be-5aa2-4e3e-bd91-23a92d2985a6.JPG,
마보기,서귀포시,서귀포서부,제주특별자치도 서귀포시 안덕면 상천리 산 83,126.392997,33.32038021,http://place.map.kakao.com/7865729,"억새,습지,전망,골프장,가을",,
마오름,제주시,제주서부,제주특별자치도 제주시 한경면 저지리 산 56,126.2436561,33.33805524,http://place.map.kakao.com/10356367,"포구,트레킹,바다,박물관,동굴",,
마은이옆,서귀포시,서귀포동부,제주특별자치도 서귀포시 표선면 가시리 산 158,126.6642972,33.39175026,http://place.map.kakao.com/10359873,"트레킹,사려니",,
마중오름,제주시,제주서부,제주특별자치도 제주시 한경면 저지리 2143-8,126.2706087,33.33465243,http://place.map.kakao.com/10337128,"곶,올레길,트레킹,전망,용암",,
마체악,서귀포시,서귀포동부,제주특별자치도 서귀포시 남원읍 한남리 산 2-1,126.6596668,33.34043651,http://place.map.kakao.com/8360323,"사려니,트레킹,전망,바위,꽃",,
마흐니,서귀포시,서귀포동부,제주특별자치도 서귀포시 남원읍 수망리 산 203,126.6586027,33.37966391,http://place.map.kakao.com/7864566,"트레킹,사려니,습지,용암,동굴",,
만세동산,제주시,제주서부,제주특별자치도 제주시 애월읍 광령리 산 183-6,126.5060109,33.36819407,http://place.map.kakao.com/7870117,"올레길,운동,바다,영실,등산",https://api.cdn.visitjeju.net/photomng/imgpath/201804/30/20d38426-f35f-4493-a6d3-1bbe78153ad1.gif,
말산메,서귀포시,서귀포동부,제주특별자치도 서귀포시 성산읍 시흥리 2656,126.8854024,33.48043643,http://place.map.kakao.com/246107756,"올레길,성산일출봉,알오름,우도,바다",,
말젯오름_곽지리,제주시,제주서부,제주특별자치도 제주시 애월읍 곽지리 1085,126.3154714,33.45011894,http://place.map.kakao.com/17786069,-,,
말젯오름_색달동,서귀포시,서귀포시,제주특별자치도 서귀포시 색달동 산 1-3,126.4445282,33.35816348,http://place.map.kakao.com/7931117,"삼형제,산기슭,목련,오솔길,트레킹",,
말찻오름,제주시,제주동부,제주특별자치도 제주시 조천읍 교래리 산 137-1,126.6542471,33.40056929,http://place.map.kakao.com/7860797,"트레킹,휴양림,일출,힐링,산책",,
망동산,제주시,우도면,제주특별자치도 제주시 우도면 연평리 산 6,126.962404,33.49802084,http://place.map.kakao.com/7870134,"우도,바다,섬,동굴,전망",,
망밭,서귀포시,서귀포시,제주특별자치도 서귀포시 서호동 73,126.5241889,33.24199404,http://place.map.kakao.com/10349145,"바다,올레길,바위",,
망오름_고내리,제주시,제주서부,제주특별자치도 제주시 애월읍 고내리 3-1,126.3414174,33.45919961,http://place.map.kakao.com/8649358,-,,
망오름_상명리,제주시,제주서부,제주특별자치도 제주시 한림읍 상명리 산 5,126.2608559,33.3656719,http://place.map.kakao.com/15150233,"바다,알오름",,
매오름,서귀포시,서귀포동부,제주특별자치도 서귀포시 표선면 세화리 산 7,126.8136193,33.31768039,http://place.map.kakao.com/25229887,"바다,전망,트레킹,꽃",https://api.cdn.visitjeju.net/photomng/imgpath/201804/30/cb3ddf10-3e75-47a1-8ec5-bf348d42da06.jpg,
명월오름,제주시,제주서부,제주특별자치도 제주시 한림읍 명월리,126.2789974,33.38260324,http://place.map.kakao.com/10339539,"동굴,바다,알오름,동산",,
모구리오름,서귀포시,서귀포동부,제주특별자치도 서귀포시 성산읍 난산리 2960-1,126.8286449,33.40901928,http://place.map.kakao.com/7868485,"야영장,캠핑,전망,성산일출봉",https://api.cdn.visitjeju.net/photomng/imgpath/202112/10/2d959586-9f08-4099-bdca-0324603692f5.jpg,
모라리오름,서귀포시,서귀포시,제주특별자치도 서귀포시 색달동 산 16-1,126.4139366,33.30157483,http://place.map.kakao.com/7868596,"전망,바위,바다,사슴",,
모슬봉,서귀포시,서귀포서부,제주특별자치도 서귀포시 대정읍 동일리 2081-3,126.2581693,33.23864977,http://place.map.kakao.com/7876363,"올레길,곶,바다,전망,꽃",https://api.cdn.visitjeju.net/photomng/imgpath/202112/21/888e53c7-515a-46a4-b929-7109f623bb36.JPG,
모지오름,서귀포시,서귀포동부,제주특별자치도 서귀포시 표선면 성읍리 산 22,126.7681385,33.39361693,http://place.map.kakao.com/10328747,"억새,전망,가을,꽃",,
묘산봉,제주시,제주동부,제주특별자치도 제주시 구좌읍 김녕리 2723,126.7446789,33.54366565,http://place.map.kakao.com/10328462,"관광,드라마,태왕사신기,골프장,전망",,
문도지오름,제주시,제주서부,제주특별자치도 제주시 한림읍 금악리 3445,126.2946137,33.32625021,http://place.map.kakao.com/7875147,"올레길,곶,전망,바다,일몰",,
문석이오름,제주시,제주동부,제주특별자치도 제주시 구좌읍 송당리 산 234,126.7945242,33.44642856,http://place.map.kakao.com/25237382,"전망,억새,전망,성산일출봉",,
물영아리,서귀포시,서귀포동부,제주특별자치도 서귀포시 남원읍 수망리 산 188,126.6920637,33.36839465,http://place.map.kakao.com/7873185,"습지,트레킹,전망,꽃",https://api.cdn.visitjeju.net/photomng/imgpath/202111/15/a2311497-a04c-4931-aee2-81f174593f33.JPG,
물오름,제주시,제주동부,제주특별자치도 제주시 조천읍 교래리 산 137-4,126.6232529,33.38429963,http://place.map.kakao.com/11289720,"트레킹,꽃,봄",,
물장오리오름,제주시,제주시,제주특별자치도 제주시 봉개동 산 78-38,126.6067945,33.40625511,http://place.map.kakao.com/10424248,"습지,휴양림,트레킹,전망대",,
물찻오름,제주시,제주동부,제주특별자치도 제주시 조천읍 교래리 산 137-1,126.6528746,33.39484743,http://place.map.kakao.com/10417720,"사려니,트레킹,힐링,꽃",https://api.cdn.visitjeju.net/photomng/imgpath/201804/30/dbe0d8ce-f480-4618-876c-1ba0283fb625.jpg,
민대가리동산,제주시,제주서부,제주특별자치도 제주시 애월읍 광령리 산 183-6,126.5152074,33.37076024,http://place.map.kakao.com/10838735,"전망,등산,전망대,단풍,일출",,
민모루오름,서귀포시,서귀포시,제주특별자치도 서귀포시 중문동 산 1-3,126.4555505,33.32535308,http://place.map.kakao.com/7883453,"영실,트레킹,사슴,바위,전망대",,
민오름_봉개동,제주시,제주시,제주특별자치도 제주시 봉개동 산 64,126.6370805,33.43725543,http://place.map.kakao.com/7879348,"휴양림,사려니,트레킹,전망",https://api.cdn.visitjeju.net/photomng/imgpath/201804/30/d9615d21-c7f1-4d8f-b778-340ea2031c4f.jpg,
민오름_선흘리,제주시,제주동부,제주특별자치도 제주시 조천읍 선흘리 산 142,126.6951111,33.4484194,http://place.map.kakao.com/7881286,"알오름,트레킹,삼나무,동산",,
민오름_송당리,제주시,제주동부,제주특별자치도 제주시 구좌읍 송당리 산 156,126.762803,33.43632531,http://place.map.kakao.com/8316763,"트레킹,삼나무,전망,알오름,억새",,
민오름_수망리,서귀포시,서귀포동부,제주특별자치도 서귀포시 남원읍 수망리 산 158-1,126.6770306,33.35018612,http://place.map.kakao.com/10412117,"트레킹,삼나무,전망,힐링",,
민오름_오라이동,제주시,제주시,제주특별자치도 제주시 오라이동 산 28-1,126.5070916,33.47572799,http://place.map.kakao.com/8316764,"노루,트레킹,반려동물,전망,전망대",,
바굼지오름,제주시,제주서부,제주특별자치도 제주시 애월읍 상귀리 332,126.4128413,33.47857208,http://place.map.kakao.com/228305623,"바위,바다,절벽,전망,꽃",,
바농오름,제주시,제주동부,제주특별자치도 제주시 조천읍 교래리 산 108,126.6538027,33.45377197,http://place.map.kakao.com/25240627,"돌문화공원,편백,전망대,가시덤불,트레킹",,
발이오름,제주시,제주서부,제주특별자치도 제주시 애월읍 소길리 산 246,126.3841203,33.39888246,http://place.map.kakao.com/8121453,"트레킹,동굴,등산,산록",,
밝은오름_금악리,제주시,제주서부,제주특별자치도 제주시 한림읍 금악리,126.3359411,33.35113777,http://place.map.kakao.com/25243139,"알오름,동산",,
밝은오름_동광리,서귀포시,서귀포서부,제주특별자치도 서귀포시 안덕면 동광리 736,126.3414721,33.30124982,http://place.map.kakao.com/7888984,"노루귀,알오름,꽃,야생화",,
밝은오름_상명리,제주시,제주서부,제주특별자치도 제주시 한림읍 상명리 1697,126.2660258,33.36087092,http://place.map.kakao.com/11070664,"전망,보리수나무,소나무,산책",,
밝은오름_해안동,제주시,제주시,제주특별자치도 제주시 해안동 465,126.4647283,33.44015025,http://place.map.kakao.com/8385072,"동산,묘지,알오름,바다",,
밧돌오름,제주시,제주동부,제주특별자치도 제주시 구좌읍 송당리 산 66-1,126.76007,33.46071398,http://place.map.kakao.com/7896521,"트레킹,편백,전망,억새",,
밧세미오름,제주시,제주시,제주특별자치도 제주시 봉개동 산 3,126.6030946,33.4652579,http://place.map.kakao.com/25244025,"트레킹,전망,경사,등산",,
방애오름_교래리,제주시,제주동부,제주특별자치도 제주시 조천읍 교래리 산 45,126.6845195,33.44392454,http://place.map.kakao.com/10810149,"알오름,노루귀,야생화,민둥산",,
방애오름_동홍동,서귀포시,서귀포시,제주특별자치도 서귀포시 동홍동 산 1-1,126.5275358,33.3542695,http://place.map.kakao.com/7890028,"동산,알오름",,
방주오름,제주시,제주서부,제주특별자치도 제주시 한림읍 명월리 679,126.28296,33.37903424,http://place.map.kakao.com/10393740,"알오름,묘지,전망",,
백리악,서귀포시,서귀포동부,제주특별자치도 서귀포시 남원읍 의귀리 1401-23,126.714683,33.3060302,http://place.map.kakao.com/228825285,"산기슭,전망",,
백약이오름,서귀포시,서귀포동부,제주특별자치도 서귀포시 표선면 성읍리 산 1,126.7897582,33.43680941,http://place.map.kakao.com/25248461,"전망,일몰,가을,성산일출봉,웨딩촬영",https://api.cdn.visitjeju.net/photomng/imgpath/202110/29/7cce6643-785f-4e07-ad75-ecd5c17eed3f.jpg,
번널오름,서귀포시,서귀포동부,제주특별자치도 서귀포시 표선면 가시리 산 10-5,126.7459055,33.37431935,http://place.map.kakao.com/7895084,"전망,유채꽃,억새,가을",,
법정악,서귀포시,서귀포시,제주특별자치도 서귀포시 하원동 산 1-1,126.4696061,33.31361084,http://place.map.kakao.com/7901044,"휴양림,전망대,트레킹,산책,단풍",,
베릿내오름,서귀포시,서귀포시,제주특별자치도 서귀포시 중문동 3712,126.4215055,33.24733194,http://place.map.kakao.com/17809089,"올레길,폭포,산책,주상절리,별",,
병곳오름,서귀포시,서귀포동부,제주특별자치도 서귀포시 표선면 가시리 산 8,126.7483755,33.367042,http://place.map.kakao.com/11302272,"유채꽃,전망,트레킹,곶",,
보롬이오름,서귀포시,서귀포서부,제주특별자치도 서귀포시 대정읍 무릉리 3526-3,126.1923061,33.27052506,http://place.map.kakao.com/11299651,"바다,우도,동굴,전망",,
보름이오름,서귀포시,서귀포시,제주특별자치도 서귀포시 서홍동 968-1,126.5446557,33.25031966,http://place.map.kakao.com/17789092,"바다,섬,동굴",,
보리오름,서귀포시,서귀포동부,제주특별자치도 서귀포시 남원읍 신례리 산 2-1,126.6011192,33.34703073,http://place.map.kakao.com/25253060,"트레킹,계곡,전망",,
본지오름,서귀포시,서귀포동부,제주특별자치도 서귀포시 성산읍 삼달리 2104-1,126.8222608,33.38710279,http://place.map.kakao.com/25254223,"묘지,트레킹,초소,동굴",,
볼레오름,서귀포시,서귀포시,제주특별자치도 서귀포시 하원동 산 1-1,126.484936,33.35310292,http://place.map.kakao.com/7901198,"영실,등산,철쭉,병풍바위",,
봉개오름,제주시,제주시,제주특별자치도 제주시 봉개동 2613-1,126.5916279,33.49358043,http://place.map.kakao.com/241172259,"공원,휴양림,트레킹,사려니",,
봉아오름,제주시,제주시,제주특별자치도 제주시 봉개동 1804,126.5925188,33.4942839,http://place.map.kakao.com/11054575,"알오름,동산",,
부대악,제주시,제주동부,제주특별자치도 제주시 조천읍 선흘리 산 103-1,126.7085198,33.44641942,http://place.map.kakao.com/10471809,-,,
부소오름,제주시,제주동부,제주특별자치도 제주시 조천읍 교래리 산 2,126.7177527,33.4421915,http://place.map.kakao.com/8363069,"트레킹,전망,삼나무",,
북돌아진 오름,제주시,제주서부,제주특별자치도 제주시 애월읍 봉성리 산 41,126.3738009,33.3563546,http://place.map.kakao.com/7906497,"목장,전망,꽃,봄",,
북오름_덕천리,제주시,제주동부,제주특별자치도 제주시 구좌읍 덕천리 산 69,126.740167,33.48729193,http://place.map.kakao.com/7912662,-,,
북오름_동광리,서귀포시,서귀포서부,제주특별자치도 서귀포시 안덕면 동광리 산 93,126.3320722,33.30628923,http://place.map.kakao.com/10447654,-,,
불칸디오름,제주시,제주시,제주특별자치도 제주시 월평동 산 6,126.5924803,33.39719192,http://place.map.kakao.com/234999276,"왕벚나무,전망대",,
붉은오름_가시리,서귀포시,서귀포동부,제주특별자치도 서귀포시 표선면 가시리 산 158,126.6795385,33.39985819,http://place.map.kakao.com/10455841,"사려니,식물,트레킹,전망",https://api.cdn.visitjeju.net/photomng/imgpath/201804/30/28eb5cc6-2bef-4b16-bf3c-5d297cddeba6.jpg,
붉은오름_광령리,제주시,제주서부,제주특별자치도 제주시 애월읍 광령리 산 183-2,126.4589778,33.37533619,http://place.map.kakao.com/25259581,-,,
비양봉,제주시,제주서부,제주특별자치도 제주시 한림읍 협재리 산 100-1,126.226973,33.40945313,http://place.map.kakao.com/7915415,"섬,바다,대나무,전망,애견",,
비치미오름,제주시,제주동부,제주특별자치도 제주시 구좌읍 송당리 산 255-1,126.7632386,33.42755797,http://place.map.kakao.com/8379747,"전망,삼나무,트레킹,편백",https://api.cdn.visitjeju.net/photomng/imgpath/202112/22/61178a20-a01b-4cf5-88e5-6a4bf7a911d4.jpg,
빈네오름,제주시,제주서부,제주특별자치도 제주시 애월읍 봉성리 52-16,126.3941615,33.34903089,http://place.map.kakao.com/7920053,"전망,삼나무,억새",,
사라오름,서귀포시,서귀포동부,제주특별자치도 서귀포시 남원읍 신례리 산 2-1,126.5708756,33.37193619,http://place.map.kakao.com/25262407,"트레킹,전망,호수,단풍,전망대",https://api.cdn.visitjeju.net/photomng/imgpath/202111/10/088edd31-403a-4eca-a0ee-3327c32ce43a.jpg,
사려니,서귀포시,서귀포동부,제주특별자치도 서귀포시 남원읍 한남리 산 2-1,126.6458301,33.34017512,http://place.map.kakao.com/7916414,"트레킹,삼나무,힐링",https://api.cdn.visitjeju.net/photomng/imgpath/201804/30/fe9cc8b9-53d4-48cf-9bd9-5788ca2a1a22.jpg,
사제비동산,제주시,제주서부,제주특별자치도 제주시 애월읍 광령리 산 183-6,126.4973852,33.37480791,http://place.map.kakao.com/7914532,"트레킹,전망,겨울",,
산굼부리,제주시,제주동부,제주특별자치도 제주시 조천읍 교래리 산 37,126.69492,33.42957532,http://place.map.kakao.com/241112224,"억새,관광,꽃,가족,트레킹",https://api.cdn.visitjeju.net/photomng/imgpath/201810/16/9594a719-94ef-4b56-aab8-7a47535d0be2.jpg,
산세미오름,제주시,제주서부,제주특별자치도 제주시 애월읍 고성리 산 127,126.4341059,33.40869729,http://place.map.kakao.com/10440260,"전망,고려",,
살손장오리,제주시,제주시,제주특별자치도 제주시 월평동 산 6,126.5957559,33.40638643,http://place.map.kakao.com/7984402,-,,
살핀오름,제주시,제주서부,제주특별자치도 제주시 애월읍 광령리 산 183-2,126.462169,33.36788565,http://place.map.kakao.com/25267011,"트레킹,식물,등산,습지",,
삼무공원 베두리오름,제주시,제주시,제주특별자치도 제주시 연동,126.4917765,33.49201112,http://place.map.kakao.com/17807680,"공원,관광",,
삼형제큰오름,서귀포시,서귀포시,제주특별자치도 서귀포시 색달동 산 1-3,126.4603308,33.357749,http://place.map.kakao.com/7923716,습지,,
상여오름,제주시,제주시,제주특별자치도 제주시 연동 1026-3,126.4916998,33.46571673,http://place.map.kakao.com/7925330,"초소,소나무,동굴,묘지,진지,산책",,
새끼오름,서귀포시,서귀포동부,제주특별자치도 서귀포시 표선면 성읍리 3196,126.7510302,33.39660871,http://place.map.kakao.com/8387235,"트레킹,삼나무,전망",,
새별오름,제주시,제주서부,제주특별자치도 제주시 애월읍 봉성리 산 59-8,126.3577307,33.36627759,http://place.map.kakao.com/25274725,"억새,가을,전망,핑크뮬리,바다,일몰,축제",https://api.cdn.visitjeju.net/photomng/imgpath/201908/13/9368a3b5-922b-4c2b-9976-ce3c14abcf6b.jpg,"새별오름은 제주 서부의 대표 오름으로, 해발 519.3m이며 경치가 아름답고 관광객이 많이 찾습니다. 정상에서는 서쪽 해변과 비양도가 보입니다."
새신오름,제주시,제주서부,제주특별자치도 제주시 한경면 청수리 3361,126.2376749,33.29776949,http://place.map.kakao.com/11117069,"동굴,일제시대,꽃,산책,묘지,전망",,
샛궤펜이,제주시,제주동부,제주특별자치도 제주시 조천읍 교래리 137-1,126.6301213,33.39297848,http://place.map.kakao.com/8426762,"트레킹,전망,성판악,전투,여름",,
샛오름_곽지리,제주시,제주서부,제주특별자치도 제주시 애월읍 곽지리 산 14,126.317176,33.4483468,http://place.map.kakao.com/8229310,-,,
샛오름_색달동,서귀포시,서귀포시,제주특별자치도 서귀포시 색달동 산 1-3,126.4524915,33.35816909,http://place.map.kakao.com/8389202,-,,
생길이오름,서귀포시,서귀포동부,제주특별자치도 서귀포시 남원읍 신례리 산 33-1,126.6425165,33.3056524,http://place.map.kakao.com/25278387,"전망,초소,트레킹,가을",,
서걸세,서귀포시,서귀포동부,제주특별자치도 서귀포시 남원읍 하례리 산 130,126.6178899,33.28075823,http://place.map.kakao.com/17781640,"전망대,바다,산책",,
서수모루,제주시,제주동부,제주특별자치도 제주시 구좌읍 송당리 산 67-2,126.7686423,33.46424924,http://place.map.kakao.com/7937664,-,,
서영아리오름,서귀포시,서귀포서부,제주특별자치도 서귀포시 안덕면 상천리 산 24,126.3999639,33.33005226,http://place.map.kakao.com/8021042,"습지,트레킹,억새,전망,가을",,
서우봉,제주시,제주동부,제주특별자치도 제주시 조천읍 함덕리 169-3,126.6775859,33.54584155,http://place.map.kakao.com/25280784,"바다,트레킹,꽃,전망,동굴,일몰,캠핑",https://api.cdn.visitjeju.net/photomng/imgpath/202111/05/448c06e4-73c2-47ff-b230-c76bb72ff86f.JPG,
선소오름,제주시,제주서부,제주특별자치도 제주시 한림읍 금악리 2785-1,126.2909149,33.372895,http://place.map.kakao.com/25283148,"묘지,억새,황칠나무",,
선족이오름,제주시,제주동부,제주특별자치도 제주시 구좌읍 송당리 산 141,126.7515468,33.44280297,http://place.map.kakao.com/246058408,-,,
설오름_가시리,서귀포시,서귀포동부,제주특별자치도 서귀포시 표선면 가시리 산 1,126.7695523,33.37106377,http://place.map.kakao.com/7946961,-,,
설오름_신효동,서귀포시,서귀포시,제주특별자치도 서귀포시 신효동 1028,126.6049353,33.25599145,http://place.map.kakao.com/7939481,-,,
섯거제,서귀포시,서귀포시,제주특별자치도 서귀포시 호근동 520-23,126.5382902,33.24745246,http://place.map.kakao.com/7890597,-,,
섯궤펜이,서귀포시,서귀포동부,제주특별자치도 서귀포시 남원읍 한남리 산 2-1,126.6284727,33.39141917,http://place.map.kakao.com/7940835,"트레킹,계곡,동굴,봄,꽃,가을,전망",,
섯알오름,서귀포시,서귀포서부,제주특별자치도 서귀포시 대정읍 상모리 1593-2,126.2812168,33.20649191,http://place.map.kakao.com/25284265,"비행장,올레길,일제시대,전쟁,바다",,
성널오름,제주시,제주동부,제주특별자치도 제주시 조천읍 교래리 산 137-2,126.5916026,33.37386704,http://place.map.kakao.com/8385052,"꽃,전망,계곡,트레킹,폭포,휴양림",,
성불오름,제주시,제주동부,제주특별자치도 제주시 구좌읍 송당리 산 266,126.7499887,33.422125,http://place.map.kakao.com/7951103,"억새,전망,트레킹",,
성진이오름,제주시,제주시,제주특별자치도 제주시 봉개동 산 78-2,126.6108449,33.41980553,http://place.map.kakao.com/8382357,"전망,휴양림,삼나무,트레킹",,
세미소,제주시,제주서부,제주특별자치도 제주시 한림읍 금악리 363,126.3199453,33.35134693,http://place.map.kakao.com/7949685,"호수,산책,전망,연못",,
세미양오름,제주시,제주시,제주특별자치도 제주시 아라일동 산 24-2,126.5622968,33.43911118,http://place.map.kakao.com/7953866,"꽃,전망,역사,초소,가을",,
세미오름,제주시,제주동부,제주특별자치도 제주시 조천읍 대흘리 산 27-8,126.6694218,33.47404749,http://place.map.kakao.com/10566814,"트레킹,샘물,꽃",,
셋개오리,제주시,제주시,제주특별자치도 제주시 봉개동,126.6146526,33.42989739,http://place.map.kakao.com/17782147,"트레킹,휴양림,전망대,꽃,휴식",,
소록산,서귀포시,서귀포동부,제주특별자치도 서귀포시 표선면 가시리 산 87-24,126.7227858,33.40057815,http://place.map.kakao.com/7958576,"유채꽃,트레킹,억새,비행장,봄",,
소머리오름,제주시,우도면,제주특별자치도 제주시 우도면 연평리 산 21-2,126.9649333,33.49163642,http://place.map.kakao.com/246104758,"바다,전망",,
소병악,서귀포시,서귀포서부,제주특별자치도 서귀포시 안덕면 상창리 산 2-1,126.3742968,33.3083447,http://place.map.kakao.com/7958410,"전망,꽃,초소,봄",,
소소름,서귀포시,서귀포동부,제주특별자치도 서귀포시 표선면 토산리 2003,126.7552111,33.34420856,http://place.map.kakao.com/10548055,"가을,전망,억새,꽃,봄",,
소수산봉,서귀포시,서귀포동부,제주특별자치도 서귀포시 성산읍 고성리 887,126.9122164,33.4367636,http://place.map.kakao.com/25288503,"올레길,바다,봉수대,일출,전망",,
소왕산,서귀포시,서귀포동부,제주특별자치도 서귀포시 성산읍 시흥리 2160,126.8768135,33.46431105,http://place.map.kakao.com/7959730,"등산,전망대,전망",,
손자봉,제주시,제주동부,제주특별자치도 제주시 구좌읍 종달리 산 52,126.8198323,33.45662365,http://place.map.kakao.com/7959260,"억새,등산,꽃,전망대",,
손지오름,제주시,제주동부,제주특별자치도 제주시 구좌읍 종달리 산 52,126.8194166,33.45528596,http://place.map.kakao.com/246072041,"억새,전망,바다,가을",https://api.cdn.visitjeju.net/photomng/imgpath/202002/25/fc03915c-d96b-4533-93c1-7f42cfd33819.jpg,
송아오름,제주시,제주서부,제주특별자치도 제주시 한경면 조수리 134,126.2385686,33.33563763,http://place.map.kakao.com/7957264,올레길,,
쇠머리오름,제주시,우도면,제주특별자치도 제주시 우도면 연평리 산 23,126.9635913,33.49209675,http://place.map.kakao.com/8389783,"등대,바다,전망,동굴,올레길",,
수악,서귀포시,서귀포동부,제주특별자치도 서귀포시 남원읍 하례리 산 10-12,126.6094502,33.32463031,http://place.map.kakao.com/8455452,"트레킹,계곡,단풍,전망대,하천",,
수월봉,제주시,제주서부,제주특별자치도 제주시 한경면 고산리 3760,126.1631086,33.29476974,http://place.map.kakao.com/25294439,"바다,일몰,노을,전망대,풍차",,
시오름,서귀포시,서귀포시,제주특별자치도 서귀포시 서호동 산 1,126.516669,33.30596956,http://place.map.kakao.com/25297520,"힐링,트레킹,가족,관광지,등산",,
식산봉,서귀포시,서귀포동부,제주특별자치도 서귀포시 성산읍 오조리 313,126.9199391,33.46568079,http://place.map.kakao.com/25297842,"바다,올레길,전망대,꽃,산책",,
식은이오름,제주시,제주동부,제주특별자치도 제주시 구좌읍 덕천리 1450,126.7461107,33.47371167,http://place.map.kakao.com/7912287,"전망,억새",,
신산오름,서귀포시,서귀포서부,제주특별자치도 서귀포시 안덕면 창천리 328,126.3625421,33.2628698,http://place.map.kakao.com/8433711,동굴,,
쌀오름,서귀포시,서귀포시,제주특별자치도 서귀포시 동홍동 2195,126.5544916,33.30060832,http://place.map.kakao.com/25302677,"트레킹,전망대,바다,꽃",,
,,,,,,,,,
아부오름,제주시,제주동부,제주특별자치도 제주시 구좌읍 송당리 2263,126.777215,33.44858418,http://place.map.kakao.com/10599658,"전망,트레킹,바다,피크닉",https://api.cdn.visitjeju.net/photomng/imgpath/201804/30/729e9473-9590-4923-aec0-e72a3fe7d18d.jpg,"아부오름은 송당마을 남쪽에 위치한 오름으로, 둥근 굼부리와 원형 삼나무숲이 특징입니다. 완만한 경사로 쉽게 오를 수 있으며, 자연 침식된 스코리아층 단면도 관찰할 수 있습니다."
아슴선이,서귀포시,서귀포동부,제주특별자치도 서귀포시 표선면 하천리 2437,126.8074152,33.36894996,http://place.map.kakao.com/17788462,꽃,,
아심전지,서귀포시,서귀포동부,제주특별자치도 서귀포시 표선면 하천리 2046-2,126.8078865,33.36768572,http://place.map.kakao.com/228853061,바다,,
안돌오름,제주시,제주동부,제주특별자치도 제주시 구좌읍 송당리 산 66-2,126.7558689,33.45783055,http://place.map.kakao.com/8428406,"트레킹,꽃,친구,캠핑",https://api.cdn.visitjeju.net/photomng/imgpath/202111/25/5a957495-48b1-4c3c-a9f6-6997c941db87.jpg,"안돌오름은 구좌읍 송대천간 도로 근처에 위치한 말굽형 화구를 가진 오름으로, 북서쪽이 정상입니다. 화구 안사면의 골에만 자연림이 우거져 있고, 나머지는 풀밭으로 덮여 있습니다."
안세미오름,제주시,제주시,제주특별자치도 제주시 봉개동 산 2,126.6072609,33.46741697,http://place.map.kakao.com/27302956,"트레킹,명상,전망,트레킹,산책",,
안천이오름,제주시,제주서부,제주특별자치도 제주시 애월읍 상가리 산 124,126.4103561,33.37215569,http://place.map.kakao.com/8428549,"트레킹,묘지,등산,전망,꽃",,
안친오름,제주시,제주동부,제주특별자치도 제주시 구좌읍 송당리 808,126.7859587,33.47846622,http://place.map.kakao.com/8494697,"전망,봄,꽃,트레킹,초원",,
알밤오름,제주시,제주동부,제주특별자치도 제주시 조천읍 선흘리 산 59-2,126.7126172,33.49114406,http://place.map.kakao.com/8490981,"억새,전망",,
알방애오름,서귀포시,서귀포시,제주특별자치도 서귀포시 동홍동 산 1-1,126.5299108,33.34734149,http://place.map.kakao.com/10580865,"전망,동산,꽃",,
알선족이오름,제주시,제주동부,제주특별자치도 제주시 구좌읍 송당리 산 140-2,126.7490993,33.44312443,http://place.map.kakao.com/7997933,"억새,동산",,
알오름_유수암리,제주시,제주서부,제주특별자치도 제주시 애월읍 유수암리 산 114,126.4033749,33.41380603,http://place.map.kakao.com/7986111,동산,,
알오름_종달리,제주시,제주동부,제주특별자치도 제주시 구좌읍 종달리 산 13-1,126.8853549,33.48057523,http://place.map.kakao.com/11264776,"올레길,바다,전망,꽃",,
알오름_토산리,서귀포시,서귀포동부,제주특별자치도 서귀포시 표선면 토산리 산 11,126.7777084,33.32789448,http://place.map.kakao.com/11104042,-,,
알오름_화북일동,제주시,제주시,제주특별자치도 제주시 화북일동 4504,126.5495061,33.51912804,http://place.map.kakao.com/8402972,-,,
어대오름,제주시,제주동부,제주특별자치도 제주시 구좌읍 덕천리 509-1,126.7608302,33.49564991,http://place.map.kakao.com/8422867,"꽃,산책,겨울,전망",,
어도오름,제주시,제주서부,제주특별자치도 제주시 애월읍 봉성리 3920-35,126.3084666,33.42055577,http://place.map.kakao.com/25316350,"산책,전망,트레킹,올레길,바다,애견",,
어스렁오름,제주시,제주서부,제주특별자치도 제주시 애월읍 광령리 산 183,126.4869024,33.35926816,http://place.map.kakao.com/10573955,"전망대,꽃,등산,겨울,단풍",,
어승생,제주시,제주시,제주특별자치도 제주시 해안동 산 220-12,126.4892783,33.39652248,http://place.map.kakao.com/10574639,"관광,전망,바다,초원,친구",,
어오름,서귀포시,서귀포서부,제주특별자치도 서귀포시 안덕면 상천리 산 25,126.4054468,33.32421365,http://place.map.kakao.com/11102796,"습지,트레킹,전망,봄",,
어점이오름,서귀포시,서귀포시,제주특별자치도 서귀포시 영남동 산 1,126.4990392,33.31080815,http://place.map.kakao.com/10578462,"트레킹,동백,일제시대,계곡,휴양,전망대",,
어후오름,제주시,제주동부,제주특별자치도 제주시 조천읍 교래리 산 137-2,126.5936033,33.39123866,http://place.map.kakao.com/7992566,"트레킹,전망대",,
여문영아리,서귀포시,서귀포동부,제주특별자치도 서귀포시 표선면 가시리 산 145,126.6942338,33.3826582,http://place.map.kakao.com/17788803,"트레킹,습지,전망,꽃,겨울",,
여절악,서귀포시,서귀포동부,제주특별자치도 서귀포시 남원읍 신흥리 산 18,126.7364642,33.34893076,http://place.map.kakao.com/8004025,"억새,초소,꽃,전망,바다",,
열안지오름_봉개동,제주시,제주시,제주특별자치도 제주시 봉개동 778-2,126.6053526,33.47307477,http://place.map.kakao.com/25319845,"전망,억새",,
열안지오름_오라이동,제주시,제주시,제주특별자치도 제주시 오라이동 산 97,126.5212032,33.42587529,http://place.map.kakao.com/8499806,"트레킹,억새,전망,설경",,
염통오름,서귀포시,서귀포동부,제주특별자치도 서귀포시 표선면 토산리,126.7776133,33.33108967,http://place.map.kakao.com/8499806,묘지,,
영실기암,서귀포시,서귀포시,제주특별자치도 서귀포시 하원동,126.5020585,33.35653848,http://place.map.kakao.com/11274593,"장군,전망,등산,꽃,단풍",,
영주산,서귀포시,서귀포동부,제주특별자치도 서귀포시 표선면 성읍리 산 18-1,126.7962385,33.4045668,http://place.map.kakao.com/8018193,"전망,트레킹,초소,가을,꽃",,
영천악,서귀포시,서귀포시,제주특별자치도 서귀포시 상효동 2364,126.6008224,33.29526677,http://place.map.kakao.com/11189551,"계곡,트레킹",https://api.cdn.visitjeju.net/photomng/imgpath/201908/09/ac350f52-6901-4973-bc41-13f073d7514b.jpg,"영천악은 울창한 숲을 감상할 수 있는 오름으로, 정상까지 약 30분이 소요됩니다. 산책로가 잘 정비되어 있으며, 한라산 뷰를 볼 수 있습니다. 겨울에는 눈 덮인 빨간 열매가 매력적입니다. 혼자보다는 일행과 함께 가는 것이 좋습니다."
예촌망,서귀포시,서귀포동부,제주특별자치도 서귀포시 남원읍 하례리 95-2,126.6304058,33.25694975,http://place.map.kakao.com/8015155,"바다,산책,전망",,
오구시오름,제주시,제주시,제주특별자치도 제주시 오등동 570-1,126.5350609,33.47002527,http://place.map.kakao.com/8011701,-,,
오드싱오름,제주시,제주시,제주특별자치도 제주시 오등동 1554,126.5200001,33.46999852,http://place.map.kakao.com/8453959,-,,
왕관릉,제주시,제주시,제주특별자치도 제주시 오등동 산 182,126.5330363,33.37120005,http://place.map.kakao.com/234968820,"관음사,성판악,산행,올레길,꽃,전망,바다",,
왕오름,서귀포시,서귀포시,제주특별자치도 서귀포시 중문동 산 1,126.4750409,33.35495937,http://place.map.kakao.com/8024164,"습지,꽃",,
왕이메,서귀포시,서귀포서부,제주특별자치도 서귀포시 안덕면 광평리 산 79,126.3765749,33.34354683,http://place.map.kakao.com/17788831,"동굴,트레킹,꽃,봄,겨울",,
용눈이오름,제주시,제주동부,제주특별자치도 제주시 구좌읍 종달리 산 28,126.832683,33.45988024,http://place.map.kakao.com/10626439,"전망,억새,일출,바다,일몰,겨울",https://api.cdn.visitjeju.net/photomng/imgpath/202110/21/411e919f-c409-4f52-903c-10310b3a0c27.jpg,"용눈이오름은 세 개의 분화구와 부드러운 능선을 가진 오름으로, 계절마다 다른 아름다움을 보여줍니다. 정상에서는 성산일출봉과 우도까지 전망이 가능합니다."
우보악,서귀포시,서귀포시,제주특별자치도 서귀포시 색달동 912-1,126.4018024,33.27536205,http://place.map.kakao.com/11187864,바다,,
우진제비오름,제주시,제주동부,제주특별자치도 제주시 조천읍 선흘리 산 112,126.6994496,33.46778927,http://place.map.kakao.com/8460981,"꽃,트레킹,전망대,밤,바다",,
운지악,서귀포시,서귀포동부,제주특별자치도 서귀포시 남원읍 남원리 760-2,126.7046943,33.29948358,http://place.map.kakao.com/10698145,-,,
웃밤,제주시,제주동부,제주특별자치도 제주시 조천읍 선흘리 산 84,126.7154171,33.47734699,http://place.map.kakao.com/8035989,"밤,동굴",,
웃방애오름,서귀포시,서귀포시,제주특별자치도 서귀포시 동홍동 산 1-1,126.5299311,33.35696089,http://place.map.kakao.com/11181281,"전망대,문화유산,전망,동굴",,
웃선족이오름,제주시,제주동부,제주특별자치도 제주시 구좌읍 송당리 산 140-2,126.7477687,33.44208307,http://place.map.kakao.com/8026958,억새,,
웃세누운오름,서귀포시,서귀포시,제주특별자치도 서귀포시 영남동 산 1-1,126.5139637,33.36098913,http://place.map.kakao.com/12777859,"전망대,현무암,산행,겨울",,
웃세붉은오름,서귀포시,서귀포시,제주특별자치도 서귀포시 서호동 산 183-1,126.5207017,33.36035534,http://place.map.kakao.com/10686012,"겨울,전망,전망대,산행,관음사,바다",,
웃세(족은)오름 ,제주시,제주서부,제주특별자치도 제주시 애월읍 광령리 산 183-6,126.5108391,33.36102374,http://place.map.kakao.com/8076005,"산행,전망대,꽃",https://api.cdn.visitjeju.net/photomng/imgpath/201804/30/68cf14f3-16e9-48c3-8ce6-6f878d82ba93.jpg,"웃세오름은 한라산 영실등산 코스에 위치한 오름으로, 봄에는 철쭉과 진달래가 만발하며, 노루 관찰에 좋은 장소입니다."
웅악,서귀포시,서귀포동부,제주특별자치도 서귀포시 남원읍 수망리 127,126.7243152,33.3308097,http://place.map.kakao.com/8027471,-,,
원물오름,서귀포시,서귀포서부,제주특별자치도 서귀포시 안덕면 동광리 산 41,126.3448811,33.32320577,http://place.map.kakao.com/25334276,"전망,꽃,바다,가을,억새,동굴",,
월라봉,서귀포시,서귀포서부,제주특별자치도 서귀포시 안덕면 감산리 1144,126.3495003,33.24390526,http://place.map.kakao.com/25335651,"올레길,박물관,계곡,동굴,바다,꽃",,
월라산,서귀포시,서귀포시,제주특별자치도 서귀포시 신효동 산 1,126.6056732,33.27136839,http://place.map.kakao.com/8471394,"산행,박물관",,
월랑지,서귀포시,서귀포동부,제주특별자치도 서귀포시 표선면 성읍리 산 5,126.8096412,33.43914964,http://place.map.kakao.com/8042882,"연못,전망",,
월산봉,서귀포시,서귀포시,제주특별자치도 서귀포시 강정동 1461,126.5002438,33.25962522,http://place.map.kakao.com/10677049,"폭포,전망대,산책",,
윗세오름,서귀포시,서귀포시,제주특별자치도 서귀포시 서호동 산 1-1,126.5210199,33.36073344,http://place.map.kakao.com/25338262,"등산,꽃,전망대,단풍",https://api.cdn.visitjeju.net/photomng/imgpath/201804/30/b005742d-feb3-4814-9d81-dba9492289a5.jpg,"윗세오름은 한라산 인근에 위치한 가장 높은 오름으로, 어리목, 영실, 돈내코 코스로 등반 가능하며, 누운오름 아래 노루샘과 고원습지가 있습니다."
유건에오름,서귀포시,서귀포동부,제주특별자치도 서귀포시 성산읍 난산리 2302,126.8458058,33.41322258,http://place.map.kakao.com/8477757,"트레킹,초소,전망",,
윤드리오름,제주시,제주동부,제주특별자치도 제주시 구좌읍 종달리 산 15,126.8557334,33.46901905,http://place.map.kakao.com/8037603,"전망,레일바이크,트레킹,억새",,
이계오름,제주시,제주서부,제주특별자치도 제주시 한경면 청수리 1854,126.2451085,33.33093875,http://place.map.kakao.com/25342606,"동굴,전망대,일본,트레킹,진지,올레길",,
이달이촛대봉,제주시,제주서부,제주특별자치도 제주시 애월읍 봉성리 산 71-1,126.3470044,33.3663686,http://place.map.kakao.com/8490593,"억새,전망,가을,트레킹",,
이돋이오름,서귀포시,서귀포서부,제주특별자치도 서귀포시 안덕면 광평리 산 12,126.4028588,33.3397504,http://place.map.kakao.com/8041649,-,,
이스렁오름,제주시,제주서부,제주특별자치도 제주시 애월읍 광령리 산 183-6,126.4841968,33.36221423,http://place.map.kakao.com/10753236,"전망대,꽃,구상나무,산행,가을",,
이승이오름,서귀포시,서귀포동부,제주특별자치도 서귀포시 남원읍 신례리 산 2-4,126.622239,33.34014979,http://place.map.kakao.com/25342411,"트레킹,벚꽃,전망대,친구,나무숲,힐링",https://api.cdn.visitjeju.net/photomng/imgpath/202111/30/60ab34b3-5baf-4205-b47e-6fe020ffe1ec.JPG,"이승이오름은 울창한 숲과 말발굽 형태의 분화구를 가진 오름으로, 다양한 코스와 해그문이소 폭포가 있습니다. 사계절 아름다운 풍경을 자랑합니다."
인정오름,서귀포시,서귀포시,제주특별자치도 서귀포시 토평동 1952,126.5848637,33.28419121,http://place.map.kakao.com/8551890,-,,
입산봉,제주시,제주동부,제주특별자치도 제주시 구좌읍 김녕리 1037-2,126.7582032,33.54756695,http://place.map.kakao.com/25343635,"묘지,봉수대,바다,연못,조선",,
입석오름,서귀포시,서귀포동부,제주특별자치도 서귀포시 남원읍 하례리 산 1-7,126.5696331,33.35670002,http://place.map.kakao.com/25343687,-,,
자배봉,서귀포시,서귀포동부,제주특별자치도 서귀포시 남원읍 위미리 산 132-2,126.6769392,33.30100229,http://place.map.kakao.com/11158780,"유아,고인돌,전망대,봉수대,바다,트레킹,산책",,
장구목오름_광령리,제주시,제주서부,제주특별자치도 제주시 애월읍 광령리 산 183-6,126.5251165,33.36630852,http://place.map.kakao.com/8057086,-,,
장구목오름_해안동,제주시,제주시,제주특별자치도 제주시 해안동,126.5266137,33.37415464,http://place.map.kakao.com/25350247,-,,
장오름,서귀포시,서귀포시,제주특별자치도 서귀포시 중문동 산 1,126.4671038,33.35632486,http://place.map.kakao.com/8070344,-,,
장자오름,서귀포시,서귀포동부,제주특별자치도 서귀포시 표선면 성읍리 2759-1,126.7756111,33.38892783,http://place.map.kakao.com/8055384,"억새,꽃,전망",,
저지오름,제주시,제주서부,제주특별자치도 제주시 한경면 저지리 산 51,126.2508601,33.33268661,http://place.map.kakao.com/25354927,"올레길,트레킹,미술관,전망대,바다,트레킹",,
절물오름,제주시,제주시,제주특별자치도 제주시 봉개동 산 78-1,126.6267079,33.43388059,http://place.map.kakao.com/241119078,"휴양림,트레킹,전망대,꽃,약수터,가족",https://api.cdn.visitjeju.net/photomng/imgpath/201804/30/f8f9787a-0011-458b-8079-26c045d8c2ea.jpg,"절물오름은 절물자연휴양림에 위치한 오름으로, 약수터와 전망대가 있으며, 두 봉우리가 있습니다. 삼림욕과 아름다운 풍경을 즐길 수 있습니다."
정물오름,제주시,제주서부,제주특별자치도 제주시 한림읍 금악리 산 52-1,126.3296255,33.33835789,http://place.map.kakao.com/25359013,"억새,전망,가을,바다,여름",https://api.cdn.visitjeju.net/photomng/imgpath/202111/16/08ca690e-d8b0-4c08-beaf-d6736ff02c50.JPG,"정물오름은 정물샘에서 유래한 이름으로, 깨끗한 물과 이시돌목장의 아름다운 풍경을 자랑합니다. 정상에서 비양도와 한라산, 바다를 감상할 수 있습니다."
정월오름,제주시,제주서부,제주특별자치도 제주시 한림읍 금능리 565-22,126.2415609,33.36365587,http://place.map.kakao.com/25359280,"산책,묘지,꽃,전망,전망대",,
제석오름,서귀포시,서귀포동부,제주특별자치도 서귀포시 표선면 하천리 429-1,126.8358697,33.34751958,http://place.map.kakao.com/8076561,"산책,바다",,
제주 썩은다리,서귀포시,서귀포서부,제주특별자치도 서귀포시 안덕면 화순리 1913,126.3293242,33.24104096,http://place.map.kakao.com/11056392,"바다,올레길,트레킹,일제시대,비행장",,
제주 안오름,제주시,제주서부,제주특별자치도 제주시 애월읍 고성리,126.4143813,33.45131436,http://place.map.kakao.com/25310024,"바다,가족",,
제지기오름,서귀포시,서귀포시,제주특별자치도 서귀포시 보목동 275-1,126.6094753,33.24162746,http://place.map.kakao.com/10801781,"바다,전망,올레길,전망대,산책",,
족은개오리,제주시,제주시,제주특별자치도 제주시 봉개동 산 78-1,126.6168022,33.43306688,http://place.map.kakao.com/10789590,"트레킹,휴양림,꽃,여름,겨울,전망",,
족은개월이,제주시,제주시,제주특별자치도 제주시 봉개동 산 78-1,126.6167696,33.42899423,http://place.map.kakao.com/241130911,"트레킹,전망대,휴양림,꽃,봄",,
족은노꼬메오름,제주시,제주서부,제주특별자치도 제주시 애월읍 유수암리 산 138,126.4171443,33.3929165,http://place.map.kakao.com/8214370,"트레킹,꽃,전망,자연림,가을",,
족은노로오름,제주시,제주서부,제주특별자치도 제주시 애월읍 고성리 산 145,126.4450277,33.36917524,http://place.map.kakao.com/8065787,"트레킹,단풍,계곡,습지,자연림",,
족은노루손이,제주시,제주시,제주특별자치도 제주시 봉개동 234-231,126.6181279,33.4588803,http://place.map.kakao.com/10801926,"트레킹,연못,꽃,야영장",,
족은대비악,서귀포시,서귀포서부,제주특별자치도 서귀포시 안덕면 광평리 산 59,126.3690499,33.33045267,http://place.map.kakao.com/11153555,"전망,억새,트레킹,친구,꽃",,
족은돌이미,제주시,제주동부,제주특별자치도 제주시 구좌읍 송당리 2451,126.7732103,33.44011982,http://place.map.kakao.com/8060120,-,,
족은두레왓,제주시,제주시,제주특별자치도 제주시 해안동 산 220-12,126.5062838,33.38645273,http://place.map.kakao.com/10800349,"전망,계곡,자연림,여름,등산",,
족은바리메,제주시,제주서부,제주특별자치도 제주시 애월읍 상가리 산 124,126.4002608,33.37572816,http://place.map.kakao.com/10798266,"전망,꽃,쉼터,트레킹,자연림",,
족은방애오름,제주시,제주동부,제주특별자치도 제주시 조천읍 교래리 산 44,126.6840582,33.43915026,http://place.map.kakao.com/8065788,"전망,트레킹,초원,억새",,
족은절물오름,제주시,제주시,제주특별자치도 제주시 봉개동,126.6330819,33.43120831,http://place.map.kakao.com/25361139,"억새,트레킹,휴양림,전망,가을,동굴",,
족은지그리오름,제주시,제주동부,제주특별자치도 제주시 조천읍 교래리 산 115,126.645992,33.45027513,http://place.map.kakao.com/8060802,"전망대,휴양림,트레킹,돌문,쉼터",,
족은칡오름,제주시,제주시,제주특별자치도 제주시 봉개동 466-2,126.6139228,33.474254,http://place.map.kakao.com/8064174,-,,
종제기오름,제주시,제주동부,제주특별자치도 제주시 구좌읍 덕천리 1307,126.7558357,33.479286,http://place.map.kakao.com/8520293,"트레킹,억새",,
좌보미,서귀포시,서귀포동부,제주특별자치도 서귀포시 표선면 성읍리 산 6,126.806767,33.43609685,http://place.map.kakao.com/26974939,"억새,전망,초소,가을,묘지,등산,캠핑",,
주체오름,제주시,제주동부,제주특별자치도 제주시 구좌읍 덕천리 864,126.7481281,33.49221128,http://place.map.kakao.com/11153172,"밤,바다,전망,억새,병사",,
진물굼부리,제주시,제주시,제주특별자치도 제주시 봉개동 산 78-1,126.6263344,33.43897805,http://place.map.kakao.com/8078733,"트레킹,휴양림,트레킹",,
천아오름_광령리,제주시,제주서부,제주특별자치도 제주시 애월읍 광령리 산 182-1,126.4499279,33.39625511,http://place.map.kakao.com/10769042,-,,
천아오름_상대리,제주시,제주서부,제주특별자치도 제주시 한림읍 상대리 1689,126.2988885,33.40457812,http://place.map.kakao.com/8099434,-,,
체오름,제주시,제주동부,제주특별자치도 제주시 구좌읍 덕천리 산 2,126.7494421,33.4656608,http://place.map.kakao.com/8094829,"전망,촬영,억새,겨울",,
쳇망오름_가시리,서귀포시,서귀포동부,제주특별자치도 서귀포시 표선면 가시리 산 158-2,126.6919455,33.39553842,http://place.map.kakao.com/11234528,꽃,,
쳇망오름_광령리,제주시,제주서부,제주특별자치도 제주시 애월읍 광령리 산 183-6,126.4881161,33.37162522,http://place.map.kakao.com/7863048,"군락,식물,바다",,
칡오름_봉개동,제주시,제주시,제주특별자치도 제주시 봉개동 466-2,126.6127,33.47536637,http://place.map.kakao.com/8111773,"전망,억새,농장,여름,바다,묘지",,
칡오름_상효동,서귀포시,서귀포시,제주특별자치도 서귀포시 상효동 2308-1,126.6028943,33.28393095,http://place.map.kakao.com/8547569,-,,
칡오름_송당리,제주시,제주동부,제주특별자치도 제주시 구좌읍 송당리 산 155,126.7620362,33.44422194,http://place.map.kakao.com/8586993,전망,,
카카오오름,제주시,제주시,제주특별자치도 제주시 영평동 2181,126.5695819,33.45058702,http://place.map.kakao.com/17578680,"바다,친구,산책,전망",,
큰궤펜이오름,제주시,제주동부,제주특별자치도 제주시 조천읍 교래리 산 137-1,126.6338666,33.39412471,http://place.map.kakao.com/11267601,"트레킹,꽃,전망,동굴,전망대",,
큰노꼬메오름,제주시,제주서부,제주특별자치도 제주시 애월읍 유수암리 산 138,126.4114582,33.38912818,http://place.map.kakao.com/10271092,"트레킹,전망,억새,전망,꽃",,
큰노루손이오름,제주시,제주시,제주특별자치도 제주시 봉개동 234-231,126.6217641,33.4587553,http://place.map.kakao.com/25379468,억새,,
큰두레왓,제주시,제주시,제주특별자치도 제주시 해안동 산 220-12,126.522045,33.37663009,http://place.map.kakao.com/235012764,"전망,자연림,벙커,등산",,
큰드레큰두레왓,제주시,제주시,제주특별자치도 제주시 해안동 산 220-12,126.5214302,33.37802612,http://place.map.kakao.com/8121105,-,,
큰바리메,제주시,제주서부,제주특별자치도 제주시 애월읍 어음리 산 21,126.3880198,33.37713081,http://place.map.kakao.com/7888119,"트레킹,전망,가을",https://api.cdn.visitjeju.net/photomng/imgpath/201804/30/1e389327-3c47-4656-a713-4b6af3dcf5c0.jpg,"바리미오름은 해발 763m, 원형 분화구를 가진 오름으로, 여성들의 밥그릇을 닮아 이름이 지어졌습니다. 서쪽은 목장, 나머지는 숲으로 덮여 있습니다."
테역장오리,제주시,제주시,제주특별자치도 제주시 봉개동 산 78-2,126.6032474,33.41090784,http://place.map.kakao.com/8109792,-,,
토산봉,서귀포시,서귀포동부,제주특별자치도 서귀포시 표선면 토산리 산 13,126.7742727,33.32200787,http://place.map.kakao.com/8108616,"봉수대,전망대,산책,바다,전망",https://api.cdn.visitjeju.net/photomng/imgpath/201804/30/2bc1a3db-372b-4d69-9ebc-9c22358c46a3.jpg,"토산봉은 토산초등학교 북쪽 900m에 위치한 복합형 화산체로, 봉수대가 있어 망오름이라 불립니다. 해송 숲으로 덮여 있으며, 두 개의 말굽형 화구가 특징입니다."
통오름,서귀포시,서귀포동부,제주특별자치도 서귀포시 성산읍 난산리 1976-1,126.8560385,33.39305307,http://place.map.kakao.com/8128672,"올레길,전망,바다,초소,전망대,꽃",,
파군봉,제주시,제주서부,제주특별자치도 제주시 애월읍 하귀1리 688-1,126.4126909,33.47869669,http://place.map.kakao.com/10889367,"삼별초,바다,고려,산책",,
판포오름,제주시,제주서부,제주특별자치도 제주시 한경면 판포리 934,126.2135209,33.35806464,http://place.map.kakao.com/8112433,"초소,바다,여름,묘지,전망",,
폭낭오름,제주시,제주서부,제주특별자치도 제주시 애월읍 봉성리 산 43,126.3819477,33.35212181,http://place.map.kakao.com/8576933,"봄,꽃,산행,전망,동굴,자연림",,
하늬보기,서귀포시,서귀포서부,제주특별자치도 서귀포시 안덕면 상천리 산 89-1,126.3915393,33.32692778,http://place.map.kakao.com/8144640,"습지,억새,트레킹,꽃,전망",,
하늬오름,서귀포시,서귀포서부,제주특별자치도 서귀포시 안덕면 상천리 산 97,126.3850196,33.3250059,http://place.map.kakao.com/25389741,"전망,가족",,
한대오름,제주시,제주서부,제주특별자치도 제주시 애월읍 봉성리 산 1,126.4244501,33.35633012,http://place.map.kakao.com/25392324,"단풍,트레킹,농장,전망,습지,억새",,
한라산 삼형제샛오름남쪽1,서귀포시,서귀포시,제주특별자치도 서귀포시 색달동 산 1,126.4476575,33.35362882,http://place.map.kakao.com/7926168,-,,
한라산 삼형제샛오름남쪽2,서귀포시,서귀포시,제주특별자치도 서귀포시 색달동 산 1,126.4505916,33.3544641,http://place.map.kakao.com/7926152,-,,
한라산 쉼터동산,제주시,제주서부,제주특별자치도 제주시 애월읍 광령리 산 183-1,126.4798115,33.36933668,http://place.map.kakao.com/7967070,-,,
활오름,서귀포시,서귀포시,제주특별자치도 서귀포시 강정동 3728,126.4800387,33.26363034,http://place.map.kakao.com/8668530,"농원,전망,폭포,농장",,
흑악,서귀포시,서귀포동부,제주특별자치도 서귀포시 남원읍 신례리 산 2-29,126.6190255,33.34892174,http://place.map.kakao.com/8701378,"전망,하천,꽃,트레킹,자연림",,
흙붉은오름,제주시,제주시,제주특별자치도 제주시 아라일동 산 67-18,126.5601359,33.37969123,http://place.map.kakao.com/8180841,"전망대,트레킹",,
